{"type": "FeatureCollection", "features": [ {"type": "Feature", "properties": {"norad_id": 34610, "name": "COSMOS 2251 DEB", "group": "cosmos-2251-debris", "lat": -16.542128417832377, "lon": 73.24492502326258, "alt_km": 1004.5809221031759, "timestamp": "2025-12-20T16:47:36.679499+00:00", "meta": {"OBJECT_NAME": "COSMOS 2251 DEB", "OBJECT_ID": "1993-036WF", "EPOCH": "2025-12-16T19:43:22.866816", "MEAN_MOTION": 14.07083274, "ECCENTRICITY": 0.01805005, "INCLINATION": 74.0182, "RA_OF_ASC_NODE": 255.1605, "ARG_OF_PERICENTER": 24.866, "MEAN_ANOMALY": 336.104, "EPHEMERIS_TYPE": 0, "CLASSIFICATION_TYPE": "U", "NORAD_CAT_ID": 34610, "ELEMENT_SET_NO": 999, "REV_AT_EPOCH": 85617, "BSTAR": 0.0012903668, "MEAN_MOTION_DOT": 2.479e-05, "MEAN_MOTION_DDOT": 0}, "tle": {"line1": "1 34610U 93036WF  25350.82179244  .00002479  00000+0  12904-2 0  9996", "line2": "2 34610  74.0182 255.1605 0180500  24.8660 336.1040 14.07083274856172"}}, "geometry": {"type": "Point", "coordinates": [73.24492502326258, -16.542128417832377]}}, {"type": "Feature", "properties": {"norad_id": 34611, "name": "COSMOS 2251 DEB", "group": "cosmos-2251-debris", "lat": -57.60160690010674, "lon": -67.66082770789983, "alt_km": 675.959205903483, "timestamp": "2025-12-20T16:47:36.679509+00:00", "meta": {"OBJECT_NAME": "COSMOS 2251 DEB", "OBJECT_ID": "1993-036WG", "EPOCH": "2025-12-20T09:43:05.107008", "MEAN_MOTION": 14.69632085, "ECCENTRICITY": 0.0021877, "INCLINATION": 74.0543, "RA_OF_ASC_NODE": 86.1305, "ARG_OF_PERICENTER": 124.9493, "MEAN_ANOMALY": 357.0921, "EPHEMERIS_TYPE": 0, "CLASSIFICATION_TYPE": "U", "NORAD_CAT_ID": 34611, "ELEMENT_SET_NO": 999, "REV_AT_EPOCH": 88503, "BSTAR": 0.0009468, "MEAN_MOTION_DOT": 5.624e-05, "MEAN_MOTION_DDOT": 0}, "tle": {"line1": "1 34611U 93036WG  25354.40492022  .00005624  00000+0  94680-3 0  9994", "line2": "2 34611  74.0543  86.1305 0021877 124.9493 357.0921 14.69632085885035"}}, "geometry": {"type": "Point", "coordinates": [-67.66082770789983, -57.60160690010674]}}, {"type": "Feature", "properties": {"norad_id": 34613, "name": "COSMOS 2251 DEB", "group": "cosmos-2251-debris", "lat": 4.859515019430793, "lon": 82.69784464839861, "alt_km": 792.1123600096289, "timestamp": "2025-12-20T16:47:36.679520+00:00", "meta": {"OBJECT_NAME": "COSMOS 2251 DEB", "OBJECT_ID": "1993-036WJ", "EPOCH": "2025-12-19T05:20:33.740736", "MEAN_MOTION": 14.26470363, "ECCENTRICITY": 0.0110345, "INCLINATION": 73.9636, "RA_OF_ASC_NODE": 266.7803, "ARG_OF_PERICENTER": 96.9169, "MEAN_ANOMALY": 54.2263, "EPHEMERIS_TYPE": 0, "CLASSIFICATION_TYPE": "U", "NORAD_CAT_ID": 34613, "ELEMENT_SET_NO": 999, "REV_AT_EPOCH": 86555, "BSTAR": 0.00082714, "MEAN_MOTION_DOT": 2.099e-05, "MEAN_MOTION_DDOT": 0}, "tle": {"line1": "1 34613U 93036WJ  25353.22261274  .00002099  00000+0  82714-3 0  9996", "line2": "2 34613  73.9636 266.7803 0110345  96.9169  54.2263 14.26470363865556"}}, "geometry": {"type": "Point", "coordinates": [82.69784464839861, 4.859515019430793]}}, {"type": "Feature", "properties": {"norad_id": 34614, "name": "COSMOS 2251 DEB", "group": "cosmos-2251-debris", "lat": -12.74578612472044, "lon": 153.31081082553294, "alt_km": 925.0135980057275, "timestamp": "2025-12-20T16:47:36.679530+00:00", "meta": {"OBJECT_NAME": "COSMOS 2251 DEB", "OBJECT_ID": "1993-036WK", "EPOCH": "2025-12-18T23:21:59.727744", "MEAN_MOTION": 14.17670739, "ECCENTRICITY": 0.0197223, "INCLINATION": 73.8822, "RA_OF_ASC_NODE": 332.666, "ARG_OF_PERICENTER": 325.6345, "MEAN_ANOMALY": 63.1604, "EPHEMERIS_TYPE": 0, "CLASSIFICATION_TYPE": "U", "NORAD_CAT_ID": 34614, "ELEMENT_SET_NO": 999, "REV_AT_EPOCH": 84855, "BSTAR": 0.0046815228, "MEAN_MOTION_DOT": 0.00011531, "MEAN_MOTION_DDOT": 0}, "tle": {"line1": "1 34614U 93036WK  25352.97360796  .00011531  00000+0  46815-2 0  9999", "line2": "2 34614  73.8822 332.6660 0197223 325.6345  63.1604 14.17670739848553"}}, "geometry": {"type": "Point", "coordinates": [153.31081082553294, -12.74578612472044]}}, {"type": "Feature", "properties": {"norad_id": 34615, "name": "COSMOS 2251 DEB", "group": "cosmos-2251-debris", "lat": 13.956310463943021, "lon": -74.53623712840034, "alt_km": 1360.107872422027, "timestamp": "2025-12-20T16:47:36.679540+00:00", "meta": {"OBJECT_NAME": "COSMOS 2251 DEB", "OBJECT_ID": "1993-036WL", "EPOCH": "2025-12-18T06:54:04.948992", "MEAN_MOTION": 13.5220421, "ECCENTRICITY": 0.04007834, "INCLINATION": 74.0049, "RA_OF_ASC_NODE": 285.2433, "ARG_OF_PERICENTER": 191.3049, "MEAN_ANOMALY": 326.0224, "EPHEMERIS_TYPE": 0, "CLASSIFICATION_TYPE": "U", "NORAD_CAT_ID": 34615, "ELEMENT_SET_NO": 999, "REV_AT_EPOCH": 82890, "BSTAR": 6.5275002e-05, "MEAN_MOTION_DOT": 5e-07, "MEAN_MOTION_DDOT": 0}, "tle": {"line1": "1 34615U 93036WL  25352.28755728  .00000050  00000+0  65275-4 0  9994", "line2": "2 34615  74.0049 285.2433 0400783 191.3049 326.0224 13.52204210828907"}}, "geometry": {"type": "Point", "coordinates": [-74.53623712840034, 13.956310463943021]}}, {"type": "Feature", "properties": {"norad_id": 34619, "name": "COSMOS 2251 DEB", "group": "cosmos-2251-debris", "lat": -72.45883102206692, "lon": 69.49063127963205, "alt_km": 620.4784863083278, "timestamp": "2025-12-20T16:47:36.679550+00:00", "meta": {"OBJECT_NAME": "COSMOS 2251 DEB", "OBJECT_ID": "1993-036WQ", "EPOCH": "2025-12-19T05:10:01.742016", "MEAN_MOTION": 14.64660075, "ECCENTRICITY": 0.0094753, "INCLINATION": 74.0434, "RA_OF_ASC_NODE": 187.4955, "ARG_OF_PERICENTER": 280.8666, "MEAN_ANOMALY": 78.185, "EPHEMERIS_TYPE": 0, "CLASSIFICATION_TYPE": "U", "NORAD_CAT_ID": 34619, "ELEMENT_SET_NO": 999, "REV_AT_EPOCH": 89393, "BSTAR": 0.00014857, "MEAN_MOTION_DOT": 8.09e-06, "MEAN_MOTION_DDOT": 0}, "tle": {"line1": "1 34619U 93036WQ  25353.21529794  .00000809  00000+0  14857-3 0  9995", "line2": "2 34619  74.0434 187.4955 0094753 280.8666  78.1850 14.64660075893930"}}, "geometry": {"type": "Point", "coordinates": [69.49063127963205, -72.45883102206692]}}, {"type": "Feature", "properties": {"norad_id": 34620, "name": "COSMOS 2251 DEB", "group": "cosmos-2251-debris", "lat": 53.96669218956122, "lon": -132.23335612766695, "alt_km": 779.5686438711346, "timestamp": "2025-12-20T16:47:36.679560+00:00", "meta": {"OBJECT_NAME": "COSMOS 2251 DEB", "OBJECT_ID": "1993-036WR", "EPOCH": "2025-12-20T06:35:10.541184", "MEAN_MOTION": 14.49205993, "ECCENTRICITY": 0.0079941, "INCLINATION": 74.0505, "RA_OF_ASC_NODE": 205.4136, "ARG_OF_PERICENTER": 240.1215, "MEAN_ANOMALY": 119.1985, "EPHEMERIS_TYPE": 0, "CLASSIFICATION_TYPE": "U", "NORAD_CAT_ID": 34620, "ELEMENT_SET_NO": 999, "REV_AT_EPOCH": 86936, "BSTAR": 0.0012728, "MEAN_MOTION_DOT": 5.023e-05, "MEAN_MOTION_DDOT": 0}, "tle": {"line1": "1 34620U 93036WR  25354.27442756  .00005023  00000+0  12728-2 0  9993", "line2": "2 34620  74.0505 205.4136 0079941 240.1215 119.1985 14.49205993869366"}}, "geometry": {"type": "Point", "coordinates": [-132.23335612766695, 53.96669218956122]}}, {"type": "Feature", "properties": {"norad_id": 34622, "name": "COSMOS 2251 DEB", "group": "cosmos-2251-debris", "lat": -1.6098746473290273, "lon": -67.72991047504169, "alt_km": 748.3355772881232, "timestamp": "2025-12-20T16:47:36.679570+00:00", "meta": {"OBJECT_NAME": "COSMOS 2251 DEB", "OBJECT_ID": "1993-036WT", "EPOCH": "2025-12-17T21:31:57.246240", "MEAN_MOTION": 14.22067123, "ECCENTRICITY": 0.01045787, "INCLINATION": 74.0427, "RA_OF_ASC_NODE": 297.7571, "ARG_OF_PERICENTER": 18.9913, "MEAN_ANOMALY": 37.9607, "EPHEMERIS_TYPE": 0, "CLASSIFICATION_TYPE": "U", "NORAD_CAT_ID": 34622, "ELEMENT_SET_NO": 999, "REV_AT_EPOCH": 86533, "BSTAR": 0.00082135127, "MEAN_MOTION_DOT": 1.896e-05, "MEAN_MOTION_DDOT": 0}, "tle": {"line1": "1 34622U 93036WT  25351.89719035  .00001896  00000+0  82135-3 0  9991", "line2": "2 34622  74.0427 297.7571 0104578  18.9913  37.9607 14.22067123865332"}}, "geometry": {"type": "Point", "coordinates": [-67.72991047504169, -1.6098746473290273]}}, {"type": "Feature", "properties": {"norad_id": 34626, "name": "COSMOS 2251 DEB", "group": "cosmos-2251-debris", "lat": -0.38448320780301654, "lon": 128.52593490721503, "alt_km": 672.1546311121665, "timestamp": "2025-12-20T16:47:36.679579+00:00", "meta": {"OBJECT_NAME": "COSMOS 2251 DEB", "OBJECT_ID": "1993-036WX", "EPOCH": "2025-12-20T08:31:32.220192", "MEAN_MOTION": 14.72282307, "ECCENTRICITY": 0.0026911, "INCLINATION": 74.0484, "RA_OF_ASC_NODE": 309.0855, "ARG_OF_PERICENTER": 35.0836, "MEAN_ANOMALY": 119.8805, "EPHEMERIS_TYPE": 0, "CLASSIFICATION_TYPE": "U", "NORAD_CAT_ID": 34626, "ELEMENT_SET_NO": 999, "REV_AT_EPOCH": 89256, "BSTAR": 0.00071381, "MEAN_MOTION_DOT": 4.506e-05, "MEAN_MOTION_DDOT": 0}, "tle": {"line1": "1 34626U 93036WX  25354.35523403  .00004506  00000+0  71381-3 0  9993", "line2": "2 34626  74.0484 309.0855 0026911  35.0836 119.8805 14.72282307892562"}}, "geometry": {"type": "Point", "coordinates": [128.52593490721503, -0.38448320780301654]}}, {"type": "Feature", "properties": {"norad_id": 34634, "name": "COSMOS 2251 DEB", "group": "cosmos-2251-debris", "lat": -49.657125662963814, "lon": -140.42202422362206, "alt_km": 722.8830177071195, "timestamp": "2025-12-20T16:47:36.679589+00:00", "meta": {"OBJECT_NAME": "COSMOS 2251 DEB", "OBJECT_ID": "1993-036XF", "EPOCH": "2025-12-19T18:50:09.053664", "MEAN_MOTION": 14.55675956, "ECCENTRICITY": 0.00438504, "INCLINATION": 74.0514, "RA_OF_ASC_NODE": 21.6344, "ARG_OF_PERICENTER": 126.9061, "MEAN_ANOMALY": 352.4538, "EPHEMERIS_TYPE": 0, "CLASSIFICATION_TYPE": "U", "NORAD_CAT_ID": 34634, "ELEMENT_SET_NO": 999, "REV_AT_EPOCH": 88884, "BSTAR": 0.00020059608, "MEAN_MOTION_DOT": 8.59e-06, "MEAN_MOTION_DDOT": 0}, "tle": {"line1": "1 34634U 93036XF  25353.78482701  .00000859  00000+0  20060-3 0  9998", "line2": "2 34634  74.0514  21.6344 0043850 126.9061 352.4538 14.55675956888847"}}, "geometry": {"type": "Point", "coordinates": [-140.42202422362206, -49.657125662963814]}}]}